COMMENT,ORIGINATOR,NORAD_CAT_ID,OBJECT_NAME,OBJECT_TYPE,CLASSIFICATION_TYPE,INTLDES,EPOCH,EPOCH_MICROSECONDS,MEAN_MOTION,ECCENTRICITY,INCLINATION,RA_OF_ASC_NODE,ARG_OF_PERICENTER,MEAN_ANOMALY,EPHEMERIS_TYPE,ELEMENT_SET_NO,REV_AT_EPOCH,BSTAR,MEAN_MOTION_DOT,MEAN_MOTION_DDOT,FILE,TLE_LINE0,TLE_LINE1,TLE_LINE2,OBJECT_ID,OBJECT_NUMBER,SEMIMAJOR_AXIS,PERIOD,APOGEE,PERIGEE,DECAYED
"GENERATED VIA SPACETRACK.ORG API","18 SPCS","48894","SPACEBEE-107","PAYLOAD","U","21059R","2021-11-06 05:17:17","307744","15.12685317","0.0010183","97.5331","77.1249","148.821","211.3626","0","999","2016","0.00030705","0.00005315","0","3205696","0 SPACEBEE-107","1 48894U 21059R   21310.22033921  .00005315  00000-0  30705-3 0  9991","2 48894  97.5331  77.1249 0010183 148.8210 211.3626 15.12685317 20169","2021-059R","48894","6906.152","95.195","535.049","520.984","1"
"GENERATED VIA SPACETRACK.ORG API","18 SPCS","48894","SPACEBEE-107","PAYLOAD","U","21059R","2021-11-06 06:52:32","628864","15.12685915","0.0010196","97.5331","77.1902","148.5143","211.67","0","999","2017","0.00029662","0.00005132","0","3206165","0 SPACEBEE-107","1 48894U 21059R   21310.28648876  .00005132  00000-0  29662-3 0  9995","2 48894  97.5331  77.1902 0010196 148.5143 211.6700 15.12685915 20172","2021-059R","48894","6906.150","95.195","535.056","520.973","1"
"GENERATED VIA SPACETRACK.ORG API","18 SPCS","48894","SPACEBEE-107","PAYLOAD","U","21059R","2021-11-07 08:16:37","358976","15.12694581","0.0010266","97.5332","78.2353","145.1864","215.0041","0","999","2033","0.00020548","0.00003535","0","3206807","0 SPACEBEE-107","1 48894U 21059R   21311.34487684  .00003535  00000-0  20548-3 0  9990","2 48894  97.5332  78.2353 0010266 145.1864 215.0041 15.12694581 20339","2021-059R","48894","6906.124","95.194","535.078","520.899","1"
"GENERATED VIA SPACETRACK.ORG API","18 SPCS","48894","SPACEBEE-107","PAYLOAD","U","21059R","2021-11-07 08:16:37","358976","15.12694581","0.0010266","97.5332","78.2353","145.1864","215.0041","0","999","2033","0.00020548","0.00003535","0","3207387","0 SPACEBEE-107","1 48894U 21059R   21311.34487684  .00003535  00000-0  20548-3 0  9990","2 48894  97.5332  78.2353 0010266 145.1864 215.0041 15.12694581 20339","2021-059R","48894","6906.124","95.194","535.078","520.899","1"
"GENERATED VIA SPACETRACK.ORG API","18 SPCS","48894","SPACEBEE-107","PAYLOAD","U","21059R","2021-11-07 19:23:24","284544","15.12697644","0.001029","97.5331","78.6925","143.7866","216.4063","0","999","2040","0.00018378","0.00003155","0","3207836","0 SPACEBEE-107","1 48894U 21059R   21311.80791996  .00003155  00000-0  18378-3 0  9991","2 48894  97.5331  78.6925 0010290 143.7866 216.4063 15.12697644 20400","2021-059R","48894","6906.114","95.194","535.086","520.873","1"
"GENERATED VIA SPACETRACK.ORG API","18 SPCS","48894","SPACEBEE-107","PAYLOAD","U","21059R","2021-11-08 03:19:40","593792","15.12699627","0.0010288","97.533","79.019","142.8508","217.3436","0","999","2045","0.00017822","0.00003058","0","3209238","0 SPACEBEE-107","1 48894U 21059R   21312.13866428  .00003058  00000-0  17822-3 0  9996","2 48894  97.5330  79.0190 0010288 142.8508 217.3436 15.12699627 20450","2021-059R","48894","6906.108","95.194","535.078","520.868","1"
"GENERATED VIA SPACETRACK.ORG API","18 SPCS","48894","SPACEBEE-107","PAYLOAD","U","21059R","2021-11-09 07:54:15","90912","15.12707096","0.0010337","97.5328","80.1945","139.2734","220.9271","0","999","2063","0.00016594","0.00002843","0","3209956","0 SPACEBEE-107","1 48894U 21059R   21313.32934133  .00002843  00000-0  16594-3 0  9993","2 48894  97.5328  80.1945 0010337 139.2734 220.9271 15.12707096 20631","2021-059R","48894","6906.085","95.194","535.089","520.812","1"
"GENERATED VIA SPACETRACK.ORG API","18 SPCS","48894","SPACEBEE-107","PAYLOAD","U","21059R","2021-11-09 07:54:15","90912","15.12707096","0.0010337","97.5328","80.1945","139.2734","220.9271","0","999","2063","0.00016594","0.00002843","0","3210161","0 SPACEBEE-107","1 48894U 21059R   21313.32934133  .00002843  00000-0  16594-3 0  9993","2 48894  97.5328  80.1945 0010337 139.2734 220.9271 15.12707096 20631","2021-059R","48894","6906.085","95.194","535.089","520.812","1"
"GENERATED VIA SPACETRACK.ORG API","18 SPCS","48894","SPACEBEE-107","PAYLOAD","U","21059R","2021-11-09 22:11:32","193888","15.12710139","0.0010368","97.5327","80.7822","137.5028","222.7007","0","999","2072","0.00016231","0.0000278","0","3210816","0 SPACEBEE-107","1 48894U 21059R   21313.92467817  .00002780  00000-0  16231-3 0  9997","2 48894  97.5327  80.7822 0010368 137.5028 222.7007 15.12710139 20720","2021-059R","48894","6906.076","95.193","535.101","520.781","1"
"GENERATED VIA SPACETRACK.ORG API","18 SPCS","48894","SPACEBEE-107","PAYLOAD","U","21059R","2021-11-10 15:39:19","590048","15.12714898","0.00104","97.5327","81.5005","135.3355","224.8716","0","999","2083","0.00018527","0.00003183","0","3210909","0 SPACEBEE-107","1 48894U 21059R   21314.65231007  .00003183  00000-0  18527-3 0  9996","2 48894  97.5327  81.5005 0010400 135.3355 224.8716 15.12714898 20836","2021-059R","48894","6906.062","95.193","535.109","520.744","1"
"GENERATED VIA SPACETRACK.ORG API","18 SPCS","48894","SPACEBEE-107","PAYLOAD","U","21059R","2021-11-11 07:31:51","589920","15.12719401","0.0010416","97.5326","82.1535","133.1957","227.0145","0","999","2093","0.00018691","0.00003212","0","3212088","0 SPACEBEE-107","1 48894U 21059R   21315.31379155  .00003212  00000-0  18691-3 0  9992","2 48894  97.5326  82.1535 0010416 133.1957 227.0145 15.12719401 20938","2021-059R","48894","6906.048","95.193","535.106","520.720","1"
"GENERATED VIA SPACETRACK.ORG API","18 SPCS","48894","SPACEBEE-107","PAYLOAD","U","21059R","2021-11-11 18:38:37","902048","15.12722143","0.0010447","97.5327","82.6106","131.8096","228.4029","0","999","2100","0.00018693","0.00003213","0","3212372","0 SPACEBEE-107","1 48894U 21059R   21315.77682757  .00003213  00000-0  18693-3 0  9990","2 48894  97.5327  82.6106 0010447 131.8096 228.4029 15.12722143 21003","2021-059R","48894","6906.040","95.193","535.119","520.690","1"
"GENERATED VIA SPACETRACK.ORG API","18 SPCS","48894","SPACEBEE-107","PAYLOAD","U","21059R","2021-11-11 21:49:08","254848","15.12722792","0.0010453","97.5326","82.7412","131.4072","228.8059","0","999","2102","0.00018326","0.00003148","0","3212485","0 SPACEBEE-107","1 48894U 21059R   21315.90912332  .00003148  00000-0  18326-3 0  9990","2 48894  97.5326  82.7412 0010453 131.4072 228.8059 15.12722792 21029","2021-059R","48894","6906.038","95.193","535.122","520.684","1"
"GENERATED VIA SPACETRACK.ORG API","18 SPCS","48894","SPACEBEE-107","PAYLOAD","U","21059R","2021-11-12 07:20:39","300288","15.1272502","0.0010466","97.5326","83.133","130.2116","230.0032","0","999","2108","0.00018027","0.00003096","0","3213417","0 SPACEBEE-107","1 48894U 21059R   21316.30601042  .00003096  00000-0  18027-3 0  9998","2 48894  97.5326  83.1330 0010466 130.2116 230.0032 15.12725020 21082","2021-059R","48894","6906.031","95.192","535.124","520.668","1"
"GENERATED VIA SPACETRACK.ORG API","18 SPCS","48894","SPACEBEE-107","PAYLOAD","U","21059R","2021-11-12 20:02:40","596576","15.12728172","0.0010507","97.5327","83.6554","128.6357","231.5816","0","999","2116","0.00017591","0.0000302","0","3213501","0 SPACEBEE-107","1 48894U 21059R   21316.83519209  .00003020  00000-0  17591-3 0  9991","2 48894  97.5327  83.6554 0010507 128.6357 231.5816 15.12728172 21166","2021-059R","48894","6906.021","95.192","535.142","520.630","1"
"GENERATED VIA SPACETRACK.ORG API","18 SPCS","48894","SPACEBEE-107","PAYLOAD","U","21059R","2021-11-12 21:37:55","746624","15.12727886","0.0010508","97.5327","83.7207","128.4315","231.786","0","999","2117","0.00016204","0.00002777","0","3213639","0 SPACEBEE-107","1 48894U 21059R   21316.90133966  .00002777  00000-0  16204-3 0  9999","2 48894  97.5327  83.7207 0010508 128.4315 231.7860 15.12727886 21178","2021-059R","48894","6906.022","95.192","535.144","520.630","1"
"GENERATED VIA SPACETRACK.ORG API","18 SPCS","48894","SPACEBEE-107","PAYLOAD","U","21059R","2021-11-13 07:09:26","664192","15.12730352","0.0010519","97.5327","84.1125","127.1892","233.0301","0","999","2123","0.00016363","0.00002805","0","3214083","0 SPACEBEE-107","1 48894U 21059R   21317.29822528  .00002805  00000-0  16363-3 0  9999","2 48894  97.5327  84.1125 0010519 127.1892 233.0301 15.12730352 21234","2021-059R","48894","6906.015","95.192","535.144","520.615","1"
"GENERATED VIA SPACETRACK.ORG API","18 SPCS","48894","SPACEBEE-107","PAYLOAD","U","21059R","2021-11-13 18:16:12","643680","15.12732952","0.0010542","97.5328","84.5697","125.7556","234.4656","0","999","2130","0.00015648","0.00002679","0","3214514","0 SPACEBEE-107","1 48894U 21059R   21317.76125745  .00002679  00000-0  15648-3 0  9992","2 48894  97.5328  84.5697 0010542 125.7556 234.4656 15.12732952 21304","2021-059R","48894","6906.007","95.192","535.152","520.591","1"
"GENERATED VIA SPACETRACK.ORG API","18 SPCS","48894","SPACEBEE-107","PAYLOAD","U","21059R","2021-11-14 02:12:28","310976","15.12733816","0.0010553","97.5328","84.8963","124.7174","235.5052","0","999","2135","0.00013595","0.00002319","0","3214574","0 SPACEBEE-107","1 48894U 21059R   21318.09199434  .00002319  00000-0  13595-3 0  9995","2 48894  97.5328  84.8963 0010553 124.7174 235.5052 15.12733816 21357","2021-059R","48894","6906.004","95.192","535.157","520.581","1"
"GENERATED VIA SPACETRACK.ORG API","18 SPCS","48894","SPACEBEE-107","PAYLOAD","U","21059R","2021-11-14 06:58:13","693728","15.12735621","0.0010563","97.5328","85.0922","124.1167","236.1067","0","999","2138","0.00014744","0.00002521","0","3214995","0 SPACEBEE-107","1 48894U 21059R   21318.29043627  .00002521  00000-0  14744-3 0  9991","2 48894  97.5328  85.0922 0010563 124.1167 236.1067 15.12735621 21384","2021-059R","48894","6905.999","95.192","535.158","520.569","1"
